ALOS (DAICHI)           
1 28931U 06002A   25351.73419158  .00001110  00000+0  19545-3 0  9994
2 28931  98.1098 303.1864 0001361 113.5739 246.5610 14.69501788 61443
H-2A R/B                
1 28932U 06002B   25354.64691154  .00006855  00000+0  36053-3 0  9990
2 28932  98.2327 130.0424 0054788 149.5579 210.8852 15.14717972 82463
RESURS-DK 1             
1 29228U 06021A   25354.70203942  .00001712  00000+0  10511-3 0  9999
2 29228  69.9339  81.2610 0006855 252.2232 107.8186 15.12200991 75580
CZ-4B R/B               
1 29507U 06046C   25354.55817920  .00002877  00000+0  15153-3 0  9996
2 29507  97.5719  34.6755 0033935 179.1559 180.9737 15.15942728 48059
CZ-2C R/B               
1 31114U 07010B   25354.25713370  .00000094  00000+0  62011-4 0  9991
2 31114  98.3977 106.5296 0059422 164.1443 196.1612 14.20212681968443
COSMOS 2428             
1 31792U 07029A   25354.45532741  .00000155  00000+0  10886-3 0  9996
2 31792  70.9365   9.6800 0004101  12.6767 347.4456 14.12892565952903
SL-16 R/B               
1 31793U 07029B   25354.31522176  .00000202  00000+0  12929-3 0  9996
2 31793  70.9758 339.2329 0001927 262.1549 196.5248 14.14816205954140
KORONAS-FOTON           
1 33504U 09003A   25354.48031479  .00007035  00000+0  16731-3 0  9997
2 33504  82.4305 358.0837 0013423  84.3031 275.9746 15.41342280933538
CZ-2C R/B               
1 37731U 11030B   25354.65528111  .00000933  00000+0  12499-3 0  9996
2 37731  97.8425 308.5871 0051407 247.1073 286.2650 14.80924159778397
H-2A R/B                
1 38341U 12025E   25354.80810725  .00001641  00000+0  15555-3 0  9994
2 38341  98.4608 310.6606 0044300 209.4230 150.4494 14.94491632736432
SHIJIAN-16 (SJ-16)      
1 39358U 13057A   25354.91706395  .00001877  00000+0  18741-3 0  9999
2 39358  74.9728 334.1814 0017889 300.7917  59.1510 14.92007321659753
